[
    {
        "Altitude(m)": 576458.7405205384,
        "Argument of Periapsis(deg)": -0.022603160782972403,
        "Eccentricity": 0.0,
        "Inclination(deg)": 97.0,
        "Latitude(deg)": 77.10716897531891,
        "Longitude(deg)": -14.5866369541063,
        "Mean Anomaly(deg)": 79.1004432691875,
        "RAAN(deg)": 120.0059470536185,
        "Satellite Name": "Starlink Shell 3 1823",
        "Satellite Number": 1823,
        "Semi-Major Axis(m)": 6938478.169268562,
        "Time(s)": 570
    },
    {
        "Altitude(m)": 576514.6207933627,
        "Argument of Periapsis(deg)": -0.02299970746337543,
        "Eccentricity": 0.0,
        "Inclination(deg)": 97.0,
        "Latitude(deg)": 77.62544612514795,
        "Longitude(deg)": -16.207108889113645,
        "Mean Anomaly(deg)": 79.72591946689252,
        "RAAN(deg)": 120.00605138789251,
        "Satellite Name": "Starlink Shell 3 1823",
        "Satellite Number": 1823,
        "Semi-Major Axis(m)": 6938478.169268562,
        "Time(s)": 580
    },
    {
        "Altitude(m)": 576567.3780447764,
        "Argument of Periapsis(deg)": -0.023396254143778456,
        "Eccentricity": 0.0,
        "Inclination(deg)": 97.0,
        "Latitude(deg)": 78.13381628068946,
        "Longitude(deg)": -17.961919968930605,
        "Mean Anomaly(deg)": 80.35139566459755,
        "RAAN(deg)": 120.00615572216651,
        "Satellite Name": "Starlink Shell 3 1823",
        "Satellite Number": 1823,
        "Semi-Major Axis(m)": 6938478.169268562,
        "Time(s)": 590
    },
    {
        "Altitude(m)": 576616.9824813063,
        "Argument of Periapsis(deg)": -0.023792800824181483,
        "Eccentricity": 0.0,
        "Inclination(deg)": 97.0,
        "Latitude(deg)": 78.63095585612112,
        "Longitude(deg)": -19.86595347572158,
        "Mean Anomaly(deg)": 80.97687186230262,
        "RAAN(deg)": 120.00626005644054,
        "Satellite Name": "Starlink Shell 3 1823",
        "Satellite Number": 1823,
        "Semi-Major Axis(m)": 6938478.169268562,
        "Time(s)": 600
    },
    {
        "Altitude(m)": 576663.4061059688,
        "Argument of Periapsis(deg)": -0.024189347504584503,
        "Eccentricity": 0.0,
        "Inclination(deg)": 97.0,
        "Latitude(deg)": 79.11533130930334,
        "Longitude(deg)": -21.935604556205874,
        "Mean Anomaly(deg)": 81.60234806000767,
        "RAAN(deg)": 120.00636439071454,
        "Satellite Name": "Starlink Shell 3 1823",
        "Satellite Number": 1823,
        "Semi-Major Axis(m)": 6938478.169268562,
        "Time(s)": 610
    },
    {
        "Altitude(m)": 576706.6227314175,
        "Argument of Periapsis(deg)": -0.02458589418498753,
        "Eccentricity": 0.0,
        "Inclination(deg)": 97.0,
        "Latitude(deg)": 79.58516684744168,
        "Longitude(deg)": -24.188725793932818,
        "Mean Anomaly(deg)": 82.22782425771273,
        "RAAN(deg)": 120.00646872498855,
        "Satellite Name": "Starlink Shell 3 1823",
        "Satellite Number": 1823,
        "Semi-Major Axis(m)": 6938478.169268562,
        "Time(s)": 620
    },
    {
        "Altitude(m)": 576746.6079922545,
        "Argument of Periapsis(deg)": -0.024982440865390556,
        "Eccentricity": 0.0,
        "Inclination(deg)": 97.0,
        "Latitude(deg)": 80.03841007890834,
        "Longitude(deg)": -26.64443702574046,
        "Mean Anomaly(deg)": 82.85330045541775,
        "RAAN(deg)": 120.00657305926255,
        "Satellite Name": "Starlink Shell 3 1823",
        "Satellite Number": 1823,
        "Semi-Major Axis(m)": 6938478.169268562,
        "Time(s)": 630
    },
    {
        "Altitude(m)": 576783.3393564596,
        "Argument of Periapsis(deg)": -0.025378987545793576,
        "Eccentricity": 0.0,
        "Inclination(deg)": 97.0,
        "Latitude(deg)": 80.47269763785354,
        "Longitude(deg)": -29.322725016669697,
        "Mean Anomaly(deg)": 83.47877665312278,
        "RAAN(deg)": 120.00667739353658,
        "Satellite Name": "Starlink Shell 3 1823",
        "Satellite Number": 1823,
        "Semi-Major Axis(m)": 6938478.169268562,
        "Time(s)": 640
    },
    {
        "Altitude(m)": 576816.7961359832,
        "Argument of Periapsis(deg)": -0.025775534226196602,
        "Eccentricity": 0.0,
        "Inclination(deg)": 97.0,
        "Latitude(deg)": 80.88532435131984,
        "Longitude(deg)": -32.24374790821809,
        "Mean Anomaly(deg)": 84.10425285082785,
        "RAAN(deg)": 120.00678172781056,
        "Satellite Name": "Starlink Shell 3 1823",
        "Satellite Number": 1823,
        "Semi-Major Axis(m)": 6938478.169268562,
        "Time(s)": 650
    },
    {
        "Altitude(m)": 576846.9594964269,
        "Argument of Periapsis(deg)": -0.026172080906599626,
        "Eccentricity": 0.0,
        "Inclination(deg)": 97.0,
        "Latitude(deg)": 81.27322166740522,
        "Longitude(deg)": -35.42673460670112,
        "Mean Anomaly(deg)": 84.72972904853289,
        "RAAN(deg)": 120.00688606208458,
        "Satellite Name": "Starlink Shell 3 1823",
        "Satellite Number": 1823,
        "Semi-Major Axis(m)": 6938478.169268562,
        "Time(s)": 660
    },
    {
        "Altitude(m)": 576873.8124658905,
        "Argument of Periapsis(deg)": -0.026568627587002652,
        "Eccentricity": 0.0,
        "Inclination(deg)": 97.0,
        "Latitude(deg)": 81.63295378305396,
        "Longitude(deg)": -38.888375269949776,
        "Mean Anomaly(deg)": 85.35520524623794,
        "RAAN(deg)": 120.00699039635857,
        "Satellite Name": "Starlink Shell 3 1823",
        "Satellite Number": 1823,
        "Semi-Major Axis(m)": 6938478.169268562,
        "Time(s)": 670
    },
    {
        "Altitude(m)": 576897.3399429239,
        "Argument of Periapsis(deg)": -0.02696517426740568,
        "Eccentricity": 0.0,
        "Inclination(deg)": 97.0,
        "Latitude(deg)": 81.96074285518588,
        "Longitude(deg)": -42.64063291975093,
        "Mean Anomaly(deg)": 85.98068144394298,
        "RAAN(deg)": 120.0070947306326,
        "Satellite Name": "Starlink Shell 3 1823",
        "Satellite Number": 1823,
        "Semi-Major Axis(m)": 6938478.169268562,
        "Time(s)": 680
    },
    {
        "Altitude(m)": 576917.5287035932,
        "Argument of Periapsis(deg)": -0.0273617209478087,
        "Eccentricity": 0.0,
        "Inclination(deg)": 97.0,
        "Latitude(deg)": 82.25253697358191,
        "Longitude(deg)": -46.687993931511535,
        "Mean Anomaly(deg)": 86.606157641648,
        "RAAN(deg)": 120.0071990649066,
        "Satellite Name": "Starlink Shell 3 1823",
        "Satellite Number": 1823,
        "Semi-Major Axis(m)": 6938478.169268562,
        "Time(s)": 690
    },
    {
        "Altitude(m)": 576934.3674076898,
        "Argument of Periapsis(deg)": -0.027758267628211725,
        "Eccentricity": 0.0,
        "Inclination(deg)": 97.0,
        "Latitude(deg)": 82.5041345941856,
        "Longitude(deg)": -51.024351656202406,
        "Mean Anomaly(deg)": 87.23163383935305,
        "RAAN(deg)": 120.00730339918061,
        "Satellite Name": "Starlink Shell 3 1823",
        "Satellite Number": 1823,
        "Semi-Major Axis(m)": 6938478.169268562,
        "Time(s)": 700
    },
    {
        "Altitude(m)": 576947.8466040278,
        "Argument of Periapsis(deg)": -0.028154814308614752,
        "Eccentricity": 0.0,
        "Inclination(deg)": 97.0,
        "Latitude(deg)": 82.71137461665887,
        "Longitude(deg)": -55.62996718592723,
        "Mean Anomaly(deg)": 87.85711003705809,
        "RAAN(deg)": 120.00740773345464,
        "Satellite Name": "Starlink Shell 3 1823",
        "Satellite Number": 1823,
        "Semi-Major Axis(m)": 6938478.169268562,
        "Time(s)": 710
    },
    {
        "Altitude(m)": 576957.9587348736,
        "Argument of Periapsis(deg)": -0.02855136098901778,
        "Eccentricity": 0.0,
        "Inclination(deg)": 97.0,
        "Latitude(deg)": 82.87039014005381,
        "Longitude(deg)": -60.46921844498277,
        "Mean Anomaly(deg)": 88.48258623476315,
        "RAAN(deg)": 120.00751206772864,
        "Satellite Name": "Starlink Shell 3 1823",
        "Satellite Number": 1823,
        "Semi-Major Axis(m)": 6938478.169268562,
        "Time(s)": 720
    },
    {
        "Altitude(m)": 576964.698139479,
        "Argument of Periapsis(deg)": -0.028947907669420805,
        "Eccentricity": 0.0,
        "Inclination(deg)": 97.0,
        "Latitude(deg)": 82.97790597144238,
        "Longitude(deg)": -65.49001676070961,
        "Mean Anomaly(deg)": 89.10806243246819,
        "RAAN(deg)": 120.00761640200265,
        "Satellite Name": "Starlink Shell 3 1823",
        "Satellite Number": 1823,
        "Semi-Major Axis(m)": 6938478.169268562,
        "Time(s)": 730
    },
    {
        "Altitude(m)": 576968.0610567357,
        "Argument of Periapsis(deg)": -0.029344454349823825,
        "Eccentricity": 0.0,
        "Inclination(deg)": 97.0,
        "Latitude(deg)": 83.03153909246582,
        "Longitude(deg)": -70.6256501896941,
        "Mean Anomaly(deg)": 89.73353863017323,
        "RAAN(deg)": 120.00772073627665,
        "Satellite Name": "Starlink Shell 3 1823",
        "Satellite Number": 1823,
        "Semi-Major Axis(m)": 6938478.169268562,
        "Time(s)": 740
    },
    {
        "Altitude(m)": 576968.0456269225,
        "Argument of Periapsis(deg)": -0.029741001030226845,
        "Eccentricity": 0.0,
        "Inclination(deg)": 97.0,
        "Latitude(deg)": 83.03004609114704,
        "Longitude(deg)": -75.79929445813508,
        "Mean Anomaly(deg)": 90.35901482787828,
        "RAAN(deg)": 120.00782507055068,
        "Satellite Name": "Starlink Shell 3 1823",
        "Satellite Number": 1823,
        "Semi-Major Axis(m)": 6938478.169268562,
        "Time(s)": 750
    }
]